OBJECT_NAME,OBJECT_ID,EPOCH,MEAN_MOTION,ECCENTRICITY,INCLINATION,RA_OF_ASC_NODE,ARG_OF_PERICENTER,MEAN_ANOMALY,EPHEMERIS_TYPE,CLASSIFICATION_TYPE,NORAD_CAT_ID,ELEMENT_SET_NO,REV_AT_EPOCH,BSTAR,MEAN_MOTION_DOT,MEAN_MOTION_DDOT
GEOSCAN 3 (RS92S3),2025-155T,2026-06-29T12:12:48.571200,15.35802285,.0008134,97.4538,150.5325,126.8494,233.3497,0,U,64893,999,8274,.48242E-3,.16756E-3,0
INNOSAT 3 (RS92S0),2025-155U,2026-06-29T11:52:34.721184,15.44697438,.0007932,97.4485,152.2924,123.8582,236.3422,0,U,64894,999,8286,.71434E-3,.33379E-3,0
KNACKSAT-2,1998-067XZ,2026-06-29T12:25:48.796032,15.61047000,.0008489,51.6266,232.4049,270.2980,89.7040,0,U,67683,999,2220,.45711E-3,.38948E-3,0
