KNACKSAT-2              
1 67683U 98067XZ  26180.51792588  .00038948  00000+0  45711-3 0  9994
2 67683  51.6266 232.4049 0008489 270.2980  89.7040 15.61047000 22207
GEOSCAN 3 (RS92S3)      
1 64893U 25155T   26180.50889550  .00016756  00000+0  48242-3 0  9992
2 64893  97.4538 150.5325 0008134 126.8494 233.3497 15.35802285 82740
INNOSAT 3 (RS92S0)      
1 64894U 25155U   26180.49484631  .00033379  00000+0  71434-3 0  9991
2 64894  97.4485 152.2924 0007932 123.8582 236.3422 15.44697438 82862
